ALOUETTE 1 (S-27)       
>>>>>>> .r6620
CLUSTER II-FM7 (SAMBA)  
<<<<<<< .mine
1 26411U 00041B   13104.06254509  .00001833  00000-0  00000+0 0  9263
2 26411 137.3763 304.9906 7708571 118.3610   0.8614  0.44222906 10832
=======
1 26411U 00041B   13108.58560159  .00002138  00000-0  00000+0 0  9286
2 26411 137.3413 305.1447 7699766 118.5086   0.8590  0.44217914 10859
>>>>>>> .r6620
CLUSTER II-FM5 (RUMBA)  
<<<<<<< .mine
1 26463U 00045A   13104.06198792  .00001958  00000-0  00000+0 0  9432
2 26463 140.2941 302.2067 7676833 117.1258   0.7767  0.44223360 11338
=======
1 26463U 00045A   13108.58562886  .00002273  00000-0  00000+0 0  9455
2 26463 140.2596 302.3771 7668665 117.2985   0.8674  0.44218462 11356
>>>>>>> .r6620
CLUSTER II-FM8 (TANGO)  
1 26464U 00045B   13085.00000000  .00002225  00000-0  00000+0 0  8627
2 26464 137.5973 303.5663 7713122 117.5114 205.7264  0.44207394 10592
MEGSAT-1                
<<<<<<< .mine
1 26546U 00057B   13103.38931880  .00002138  00000-0  25398-3 0  8794
2 26546  64.5583  59.0147 0047187 255.7648 248.7409 14.86389848679494
=======
1 26546U 00057B   13108.96000060  .00000634  00000-0  87668-4 0  8844
2 26546  64.5585  41.6897 0046906 255.2994 176.4907 14.86402921680324
>>>>>>> .r6620
HETE-2                  
<<<<<<< .mine
1 26561U 00061A   13101.13736674  .00004141  00000-0  25927-3 0  8515
2 26561   1.9451 335.4508 0022779 123.5945 236.6620 14.99648878684384
=======
1 26561U 00061A   13109.18359855  .00003259  00000-0  19007-3 0  8533
2 26561   1.9507 275.5580 0021995 241.9380 118.0499 14.99695914685591
>>>>>>> .r6620
MUNIN                   
<<<<<<< .mine
1 26621U 00075C   13103.72914410 -.00000175  00000-0 -14979-3 0  6327
2 26621  95.4110 172.1658 0715408  43.3848  95.0751 13.03911853589681
=======
1 26621U 00075C   13110.15223122 -.00000891  00000-0 -79992-3 0  6371
2 26621  95.4088 175.4267 0714942  26.8415   5.5535 13.03911382590523
>>>>>>> .r6620
ODIN                    
<<<<<<< .mine
1 26702U 01007A   13103.44135511  .00006151  00000-0  50982-3 0  9256
2 26702  97.6375 118.6477 0005447 118.9645 241.2125 14.99174634662317
=======
1 26702U 01007A   13109.44832802  .00002200  00000-0  18538-3 0  9318
2 26702  97.6390 124.5379 0006198 105.0491 255.1418 14.99205726663217
>>>>>>> .r6620
TIMED                   
<<<<<<< .mine
1 26998U 01055B   13103.45042530  .00001022  00000-0  12274-3 0  4669
2 26998  74.0723 106.6121 0002187 241.1048 118.9912 14.85429218614707
=======
1 26998U 01055B   13110.05061312  .00000699  00000-0  85304-4 0  4723
2 26998  74.0729  93.5292 0002006 231.2889 128.8111 14.85436556615681
>>>>>>> .r6620
RHESSI                  
<<<<<<< .mine
1 27370U 02004A   13103.44539638  .00009470  00000-0  59665-3 0   923
2 27370  38.0371 225.4953 0013054  37.9360  21.7252 15.08746236614062
=======
1 27370U 02004A   13109.67976859  .00002826  00000-0  18306-3 0   974
2 27370  38.0368 188.6300 0012678  91.2399  40.2199 15.08802574615009
>>>>>>> .r6620
INTEGRAL                
<<<<<<< .mine
1 27540U 02048A   13102.91666667  .00000175  00000-0  00000+0 0  2744
2 27540  61.5947 265.0476 8719503 253.4694 355.3052  0.33410868  8967
=======
1 27540U 02048A   13108.91666667  .00000266  00000-0  00000+0 0  2763
2 27540  61.5011 264.6316 8722233 253.5281 357.3926  0.33415836  8988
>>>>>>> .r6620
FEDSAT                  
<<<<<<< .mine
1 27598U 02056B   13103.07572729  .00000120  00000-0  64587-4 0  9370
2 27598  98.2561 106.7422 0010266  75.1379 316.1544 14.28227419538474
=======
1 27598U 02056B   13108.56259286  .00000065  00000-0  42495-4 0  9416
2 27598  98.2559 111.9342 0010044  60.9284  85.5189 14.28228672539252
>>>>>>> .r6620
WEOS                    
<<<<<<< .mine
1 27599U 02056C   13104.09879589  .00000151  00000-0  75941-4 0  9413
2 27599  98.2458 116.3486 0011146  80.9454 310.4240 14.28853979538828
=======
1 27599U 02056C   13108.09040419  .00000118  00000-0  62658-4 0  9446
2 27599  98.2453 120.1246 0011023  70.1744 321.7136 14.28854984539396
>>>>>>> .r6620
MICRO LABSAT            
<<<<<<< .mine
1 27600U 02056D   13104.05616384  .00000126  00000-0  65551-4 0  9052
2 27600  98.2408 115.4987 0012096  81.4385 312.0612 14.29111245538933
=======
1 27600U 02056D   13110.07791199  .00000090  00000-0  51305-4 0  9107
2 27600  98.2402 121.1940 0011905  65.1264 331.2373 14.29112580539798
>>>>>>> .r6620
CORIOLIS                
<<<<<<< .mine
1 27640U 03001A   13103.58310372  .00000103  00000-0  70797-4 0  1541
2 27640  98.7568 112.4562 0014129  13.0496 138.9300 14.18583766531614
=======
1 27640U 03001A   13109.64005133  .00000057  00000-0  48501-4 0  1603
2 27640  98.7564 118.4373 0013608 355.2809 111.5638 14.18585051532471
>>>>>>> .r6620
CHIPSAT                 
<<<<<<< .mine
1 27643U 03002B   13104.15940242  .00001563  00000-0  12505-3 0  3594
2 27643  94.0144 309.4338 0012952 130.8252   9.6842 15.00514498560137
=======
1 27643U 03002B   13110.16121627  .00001158  00000-0  92905-4 0  3649
2 27643  94.0116 312.5385 0012765 115.2554  24.6048 15.00520571561031
>>>>>>> .r6620
SORCE                   
<<<<<<< .mine
1 27651U 03004A   13104.19295056  .00001543  00000-0  19486-3 0   753
2 27651  39.9941 158.5549 0024952 349.8674  60.1454 14.84428651553723
=======
1 27651U 03004A   13109.52259921  .00000868  00000-0  11636-3 0   800
2 27651  39.9944 129.0495 0024291  28.4818 100.1473 14.84435435554517
>>>>>>> .r6620
GALEX                   
<<<<<<< .mine
1 27783U 03017A   13103.19745572  .00000828  00000-0  14590-3 0  7578
2 27783  28.9995  39.1307 0004115 133.4530   6.6796 14.60639716531987
=======
1 27783U 03017A   13110.16728834  .00000576  00000-0  94904-4 0  7630
2 27783  28.9996 356.6548 0004019 202.6391 295.6260 14.60645038533004
>>>>>>> .r6620
MOST                    
<<<<<<< .mine
1 27843U 03031D   13103.55229459  .00000133  00000-0  82526-4 0  6272
2 27843  98.7180 112.3681 0011009  91.7803  54.1727 14.20292491507372
=======
1 27843U 03031D   13110.08160919 -.00000003  00000-0  18969-4 0  6326
2 27843  98.7174 118.8051 0010868  74.9904 316.8818 14.20292715508306
>>>>>>> .r6620
QUAKESAT                
<<<<<<< .mine
1 27845U 03031F   13103.56714559  .00000387  00000-0  19865-3 0  6710
2 27845  98.7117 113.5984 0010112  97.9313  48.1469 14.20958522507416
=======
1 27845U 03031F   13110.09325654  .00000283  00000-0  15052-3 0  6764
2 27845  98.7109 120.0343 0010014  81.2954 309.9947 14.20962002508347
>>>>>>> .r6620
AAU CUBESAT             
<<<<<<< .mine
1 27846U 03031G   13102.96654435  .00000236  00000-0  12801-3 0  5399
2 27846  98.6910 113.1704 0010113  59.2701 330.8786 14.21420587507594
=======
1 27846U 03031G   13109.53084433  .00000155  00000-0  90668-4 0  5448
2 27846  98.6904 119.6341 0009815  41.5766  79.9081 14.21422909508520
>>>>>>> .r6620
SCISAT 1                
<<<<<<< .mine
1 27858U 03036A   13103.66989385  .00000580  00000-0  89930-4 0  9158
2 27858  73.9341 315.4699 0007479  43.9664 350.0440 14.75640136520623
STSAT-1                 
1 27945U 03042G   13103.16838120  .00000359  00000-0  77355-4 0  8451
2 27945  97.7995 294.7173 0013087  49.6401  15.4587 14.63675648509735
=======
1 27858U 03036A   13109.49986950  .00000324  00000-0  52612-4 0  9209
2 27858  73.9335 303.9937 0007749  30.1902   1.6364 14.75643122521483
STSAT-1                 
1 27945U 03042G   13109.11774177  .00000190  00000-0  44971-4 0  8500
2 27945  97.7989 300.3486 0012641  31.6872  43.1426 14.63678273510602
>>>>>>> .r6620
GP-B                    
<<<<<<< .mine
1 28230U 04014A   13104.17785190  .00000535  00000-0  73902-4 0  7100
2 28230  89.9020 145.4551 0002715 126.6644 265.3067 14.76896249483879
=======
1 28230U 04014A   13109.68819788  .00000365  00000-0  49673-4 0  7156
2 28230  89.9011 145.3892 0002990 125.9284  23.9852 14.76899087484686
>>>>>>> .r6620
DEMETER                 
<<<<<<< .mine
1 28368U 04025C   13104.17170893  .00000921  00000-0  15457-3 0  8999
2 28368  97.8182 151.2471 0002159 108.5458 251.6006 14.71919780471079
DOUBLESTAR TC-2         
1 28382U 04029A   13101.97454083  .00000297  00000-0  13568-2 0  2226
2 28382  88.3476 320.8138 7301352  34.2068 356.2857  2.15620566 67440
=======
1 28368U 04025C   13110.15390289  .00000403  00000-0  71846-4 0  9189
2 28368  97.8179 156.9999 0002314 100.9527 259.1946 14.71926828471952
DOUBLESTAR TC-2         
1 28382U 04029A   13108.93130664  .00000111  00000-0  48262-3 0  2253
2 28382  88.3333 320.7236 7305518  32.9181 356.4285  2.15624150 67595
>>>>>>> .r6620
SWIFT                   
<<<<<<< .mine
1 28485U 04047A   13103.82441574  .00005194  00000-0  41336-3 0  4168
2 28485  20.5584 308.7558 0013273 139.7873 332.5613 14.96098286458769
=======
1 28485U 04047A   13108.82454236  .00002036  00000-0  14001-3 0  4208
2 28485  20.5579 274.2075 0012900 202.7532 262.6432 14.96120488459519
>>>>>>> .r6620
SUZAKU (ASTRO-EII)      
<<<<<<< .mine
1 28773U 05025A   13103.30490002  .00005959  00000-0  40255-3 0  9958
2 28773  31.3850  45.4502 0006719 252.4240 241.0626 15.05193957426313
=======
1 28773U 05025A   13109.78822904  .00002389  00000-0  15807-3 0  9999
2 28773  31.3852   4.0921 0006544 314.5186  94.7250 15.05233482427287
>>>>>>> .r6620
AKARI (ASTRO-F)         
<<<<<<< .mine
1 28939U 06005A   13104.13574906  .00007312  00000-0  38983-3 0  1580
2 28939  98.2435 154.5497 0169301 350.7197  41.8850 15.03955147381841
=======
1 28939U 06005A   13108.12758311  .00002994  00000-0  16276-3 0  1613
2 28939  98.2431 158.8059 0168814 337.2629  55.0200 15.03992068382442
>>>>>>> .r6620
FORMOSAT-3 FM6          
<<<<<<< .mine
1 29047U 06011A   13103.37791495  .00000320  00000-0  14478-3 0   727
2 29047  71.9814  58.5867 0053503 261.9401 243.5587 14.27637522366932
=======
1 29047U 06011A   13109.94215535  .00000144  00000-0  74280-4 0   779
2 29047  71.9824  45.2141 0053208 250.9144 140.1919 14.27640424367875
>>>>>>> .r6620
FORMOSAT-3 FM1          
<<<<<<< .mine
1 29048U 06011B   13103.18045042  .00000309  00000-0  14071-3 0  1533
2 29048  71.9705 332.8254 0045790 216.1062 291.3545 14.27636598369383
